{"type": "FeatureCollection", "features": [{"type": "Feature", "geometry": {"type": "Point", "coordinates": [123.48, -6.84]}, "properties": {"period": "2020-08", "event_count": 2, "mag_max": 6.7, "mag_mean": 6.7, "depth_mean": 663.0, "anomaly_score": -0.7685942541895671, "zscore": 3.8304615324704048}}, {"type": "Feature", "geometry": {"type": "Point", "coordinates": [122.58, 4.39]}, "properties": {"period": "2017-01", "event_count": 2, "mag_max": 7.2, "mag_mean": 7.2, "depth_mean": 629.0, "anomaly_score": -0.7685942541895671, "zscore": 4.458232262500615}}, {"type": "Feature", "geometry": {"type": "Point", "coordinates": [108.16, -4.98]}, "properties": {"period": "2016-10", "event_count": 2, "mag_max": 6.3, "mag_mean": 6.3, "depth_mean": 614.0, "anomaly_score": -0.7670357753301549, "zscore": 3.3282449484462364}}, {"type": "Feature", "geometry": {"type": "Point", "coordinates": [111.84, -6.1]}, "properties": {"period": "2019-09", "event_count": 2, "mag_max": 6.1, "mag_mean": 6.1, "depth_mean": 621.0, "anomaly_score": -0.7649627181646446, "zscore": 3.077136656434152}}, {"type": "Feature", "geometry": {"type": "Point", "coordinates": [113.05, -6.56]}, "properties": {"period": "2020-02", "event_count": 2, "mag_max": 6.2, "mag_mean": 6.2, "depth_mean": 641.0, "anomaly_score": -0.7649627181646446, "zscore": 3.2026908024401948}}, {"type": "Feature", "geometry": {"type": "Point", "coordinates": [125.00333333333332, -6.933333333333334]}, "properties": {"period": "2019-04", "event_count": 3, "mag_max": 6.3, "mag_mean": 5.833333333333333, "depth_mean": 547.3333333333334, "anomaly_score": -0.7634116029722012, "zscore": 3.3282449484462364}}, {"type": "Feature", "geometry": {"type": "Point", "coordinates": [111.86, -6.13]}, "properties": {"period": "2019-09", "event_count": 2, "mag_max": 6.0, "mag_mean": 6.0, "depth_mean": 610.0, "anomaly_score": -0.7627882227610837, "zscore": 2.9515825104281106}}, {"type": "Feature", "geometry": {"type": "Point", "coordinates": [111.83, -6.16]}, "properties": {"period": "2019-09", "event_count": 2, "mag_max": 6.0, "mag_mean": 6.0, "depth_mean": 615.0, "anomaly_score": -0.7627882227610837, "zscore": 2.9515825104281106}}, {"type": "Feature", "geometry": {"type": "Point", "coordinates": [122.51, -7.39]}, "properties": {"period": "2015-02", "event_count": 2, "mag_max": 6.8, "mag_mean": 6.8, "depth_mean": 547.0, "anomaly_score": -0.7613483408080681, "zscore": 3.9560156784764464}}, {"type": "Feature", "geometry": {"type": "Point", "coordinates": [123.04, -7.3]}, "properties": {"period": "2017-10", "event_count": 2, "mag_max": 6.7, "mag_mean": 6.7, "depth_mean": 552.0, "anomaly_score": -0.7613483408080681, "zscore": 3.8304615324704048}}]}